IRIDIUM 106             
1 41917U 17003A   25061.59984001  .00000307  00000+0  10242-3 0  9994
2 41917  86.3927 285.5869 0002211  73.7303 286.4136 14.34217506425612
IRIDIUM 103             
1 41918U 17003B   25061.58717350  .00000453  00000+0  15465-3 0  9999
2 41918  86.3928 285.4932 0002723  88.9876 271.1631 14.34221014425637
IRIDIUM 109             
1 41919U 17003C   25061.66326313  .00000496  00000+0  17019-3 0  9998
2 41919  86.3930 285.5132 0002208  92.6556 267.4893 14.34220382425634
IRIDIUM 102             
1 41920U 17003D   25061.70131784  .00000386  00000+0  13062-3 0  9993
2 41920  86.3927 285.4304 0002079  91.5027 268.6407 14.34215371425703
IRIDIUM 105             
1 41921U 17003E   25061.60228893 -.00000001  00000+0 -74892-5 0  9997
2 41921  86.3921 253.8820 0002041  89.2076 270.9354 14.34217240427545
IRIDIUM 104             
1 41922U 17003F   25061.57447118  .00000412  00000+0  14003-3 0  9997
2 41922  86.3929 285.5198 0002402  96.5532 263.5937 14.34214803425672
IRIDIUM 114             
1 41923U 17003G   25061.72035045  .00000131  00000+0  39644-4 0  9994
2 41923  86.3929 285.4432 0002343  87.9919 272.1545 14.34217679425697
IRIDIUM 108             
1 41924U 17003H   25061.60909969  .00000430  00000+0  14653-3 0  9991
2 41924  86.3914 253.7869 0002046  84.5183 275.6246 14.34215697427517
